NORAD_CAT_ID,OBJECT_NAME,OBJECT_TYPE,EPOCH,MEAN_MOTION,ECCENTRICITY,INCLINATION,RA_OF_ASC_NODE,ARG_OF_PERICENTER,MEAN_ANOMALY,BSTAR,MEAN_MOTION_DOT,MEAN_MOTION_DDOT,TLE_LINE0,TLE_LINE1,TLE_LINE2,SEMIMAJOR_AXIS,PERIOD,APOGEE,PERIGEE,DECAYED
52458.0,STARLINK-3898,PAYLOAD,2024-07-02 20:24:39,15.08860761,0.0001099,53.2162,309.2448,85.7428,274.3689,0.0018597,0.0002945,0.0,0 STARLINK-3898,1 52458U 22049H   24184.85045399  .00029450  00000-0  18597-2 0  9995,2 52458  53.2162 309.2448 0001099  85.7428 274.3689 15.08860761119459,6917.817,95.436,540.442,538.922,0.0
52458.0,STARLINK-3898,PAYLOAD,2024-07-03 12:18:31,15.08838809,0.0001246,53.2161,306.2714,83.4869,276.6265,0.0014032,0.00022114,0.0,0 STARLINK-3898,1 52458U 22049H   24185.51286394  .00022114  00000-0  14032-2 0  9991,2 52458  53.2161 306.2714 0001246  83.4869 276.6265 15.08838809119553,6917.884,95.438,540.611,538.887,0.0
52458.0,STARLINK-3898,PAYLOAD,2024-07-03 15:29:17,15.08843577,0.0001248,53.2161,305.6764,83.5247,276.5887,0.001618,0.00025559,0.0,0 STARLINK-3898,1 52458U 22049H   24185.64534375  .00025559  00000-0  16180-2 0  9992,2 52458  53.2161 305.6764 0001248  83.5247 276.5887 15.08843577119416,6917.869,95.437,540.598,538.871,0.0
52458.0,STARLINK-3898,PAYLOAD,2024-07-04 01:01:36,15.08843808,0.0001217,53.216,303.892,96.5677,263.5454,0.00095495,0.00014944,0.0,0 STARLINK-3898,1 52458U 22049H   24186.04278405  .00014944  00000-0  95495-3 0  9999,2 52458  53.2160 303.8920 0001217  96.5677 263.5454 15.08843808119633,6917.869,95.437,540.576,538.892,0.0
52458.0,STARLINK-3898,PAYLOAD,2024-07-04 13:44:41,15.08852854,0.0001436,53.2164,301.5137,91.8932,268.2225,0.0007817,0.00012179,0.0,0 STARLINK-3898,1 52458U 22049H   24186.57270328  .00012179  00000-0  78170-3 0  9992,2 52458  53.2164 301.5137 0001436  91.8932 268.2225 15.08852854119557,6917.841,95.437,540.7,538.713,0.0
52458.0,STARLINK-3898,PAYLOAD,2024-07-04 16:55:27,15.08861703,0.0001389,53.2163,300.9187,89.912,270.2031,0.0010491,0.00016458,0.0,0 STARLINK-3898,1 52458U 22049H   24186.70518103  .00016458  00000-0  10491-2 0  9998,2 52458  53.2163 300.9187 0001389  89.9120 270.2031 15.08861703119571,6917.814,95.436,540.64,538.718,0.0
52458.0,STARLINK-3898,PAYLOAD,2024-07-05 00:52:23,15.08854145,0.000146,53.2161,299.4315,76.3584,283.7571,0.0010063,0.0001577,0.0,0 STARLINK-3898,1 52458U 22049H   24187.03638247  .00015770  00000-0  10063-2 0  9998,2 52458  53.2161 299.4315 0001460  76.3584 283.7571 15.08854145119781,6917.837,95.437,540.712,538.692,0.0
52458.0,STARLINK-3898,PAYLOAD,2024-07-05 13:35:28,15.08843478,0.0001304,53.2162,297.0531,79.4602,280.6537,0.00031859,4.787e-05,0.0,0 STARLINK-3898,1 52458U 22049H   24187.56630365  .00004787  00000-0  31859-3 0  9992,2 52458  53.2162 297.0531 0001304  79.4602 280.6537 15.08843478119862,6917.87,95.437,540.637,538.833,0.0
52458.0,STARLINK-3898,PAYLOAD,2024-07-05 15:10:51,15.08846794,0.0001367,53.2161,296.7556,79.4686,280.646,0.0004943,7.589e-05,0.0,0 STARLINK-3898,1 52458U 22049H   24187.63254338  .00007589  00000-0  49430-3 0  9999,2 52458  53.2161 296.7556 0001367  79.4686 280.6460 15.08846794119718,6917.86,95.437,540.67,538.779,0.0
52458.0,STARLINK-3898,PAYLOAD,2024-07-06 13:26:15,15.08850656,0.0001475,53.2159,292.5926,82.3105,277.8055,0.0005614,8.661e-05,0.0,0 STARLINK-3898,1 52458U 22049H   24188.55990301  .00008661  00000-0  56140-3 0  9996,2 52458  53.2159 292.5926 0001475  82.3105 277.8055 15.08850656119854,6917.848,95.437,540.733,538.692,0.0
52458.0,STARLINK-3898,PAYLOAD,2024-07-07 00:33:57,15.08845744,0.0001452,53.2155,290.5112,81.943,278.1727,0.0002062,2.996e-05,0.0,0 STARLINK-3898,1 52458U 22049H   24189.02358228  .00002996  00000-0  20620-3 0  9994,2 52458  53.2155 290.5112 0001452  81.9430 278.1727 15.08845744120085,6917.863,95.437,540.732,538.723,0.0
52458.0,STARLINK-3898,PAYLOAD,2024-07-07 10:06:16,15.08836458,0.0001469,53.216,288.7279,82.0312,278.0847,-1.0632e-05,-4.57e-06,0.0,0 STARLINK-3898,1 52458U 22049H   24189.42102581 -.00000457  00000-0 -10632-4 0  9992,2 52458  53.2160 288.7279 0001469  82.0312 278.0847 15.08836458120144,6917.891,95.438,540.772,538.74,0.0
52458.0,STARLINK-3898,PAYLOAD,2024-07-08 13:07:49,15.08846062,0.0001441,53.2175,283.6715,93.6695,266.4462,7.9832e-05,9.83e-06,0.0,0 STARLINK-3898,1 52458U 22049H   24190.54710054  .00000983  00000-0  79832-4 0  9996,2 52458  53.2175 283.6715 0001441  93.6695 266.4462 15.08846062120316,6917.862,95.437,540.724,538.73,0.0
52458.0,STARLINK-3898,PAYLOAD,2024-07-09 12:58:37,15.08832656,0.0001358,53.218,279.2161,86.6328,273.4819,0.00010595,1.398e-05,0.0,0 STARLINK-3898,1 52458U 22049H   24191.54070873  .00001398  00000-0  10595-3 0  9996,2 52458  53.2180 279.2161 0001358  86.6328 273.4819 15.08832656120464,6917.903,95.438,540.707,538.828,0.0
52458.0,STARLINK-3898,PAYLOAD,2024-07-10 11:13:55,15.08913121,0.0001405,53.2165,275.0465,124.9668,235.1456,0.00068947,0.00010724,0.0,0 STARLINK-3898,1 52458U 22049H   24192.46800818  .00010724  00000-0  68947-3 0  9995,2 52458  53.2165 275.0465 0001405 124.9668 235.1456 15.08913121120609,6917.657,95.433,540.494,538.55,0.0
52458.0,STARLINK-3898,PAYLOAD,2024-07-10 16:00:11,15.08826541,0.0001211,53.2165,274.1547,169.4046,190.6972,-6.3931e-05,-1.305e-05,0.0,0 STARLINK-3898,1 52458U 22049H   24192.66679658 -.00001305  00000-0 -63931-4 0  9999,2 52458  53.2165 274.1547 0001211 169.4046 190.6972 15.08826541120639,6917.922,95.438,540.624,538.949,0.0
52458.0,STARLINK-3898,PAYLOAD,2024-07-11 04:43:15,15.0883292,0.000109,53.2173,271.7765,104.2477,255.8636,0.00012245,1.661e-05,0.0,0 STARLINK-3898,1 52458U 22049H   24193.19671180  .00001661  00000-0  12245-3 0  9994,2 52458  53.2173 271.7765 0001090 104.2477 255.8636 15.08832920120711,6917.902,95.438,540.521,539.013,0.0
52458.0,STARLINK-3898,PAYLOAD,2024-07-11 11:04:47,15.08844012,0.0001485,53.2166,270.5869,112.5557,247.5593,0.00011908,1.608e-05,0.0,0 STARLINK-3898,1 52458U 22049H   24193.46166601  .00001608  00000-0  11908-3 0  9997,2 52458  53.2166 270.5869 0001485 112.5557 247.5593 15.08844012120595,6917.868,95.437,540.76,538.706,0.0
52458.0,STARLINK-3898,PAYLOAD,2024-07-12 04:34:01,15.08922438,0.0001279,53.2178,267.3172,115.6786,244.4338,-0.00065727,-0.00010757,0.0,0 STARLINK-3898,1 52458U 22049H   24194.19029260 -.00010757  00000-0 -65727-3 0  9992,2 52458  53.2178 267.3172 0001279 115.6786 244.4338 15.08922438120860,6917.628,95.432,540.378,538.609,0.0
52458.0,STARLINK-3898,PAYLOAD,2024-07-12 12:30:56,15.08902761,9.28e-05,53.2166,265.8298,81.1311,278.9786,-0.00068269,-0.00011155,0.0,0 STARLINK-3898,1 52458U 22049H   24194.52149156 -.00011155  00000-0 -68269-3 0  9993,2 52458  53.2166 265.8298 0000928  81.1311 278.9786 15.08902761120912,6917.689,95.434,540.196,538.912,0.0
52458.0,STARLINK-3898,PAYLOAD,2024-07-12 14:06:19,15.08915059,0.0001121,53.2165,265.5317,124.7089,235.4009,-0.00084674,-0.00013766,0.0,0 STARLINK-3898,1 52458U 22049H   24194.58772487 -.00013766  00000-0 -84674-3 0  9996,2 52458  53.2165 265.5317 0001121 124.7089 235.4009 15.08915059120765,6917.651,95.433,540.291,538.741,0.0
52458.0,STARLINK-3898,PAYLOAD,2024-07-12 22:03:17,15.08827093,0.0001277,53.2177,264.0413,150.5745,209.5319,0.00019795,2.863e-05,0.0,0 STARLINK-3898,1 52458U 22049H   24194.91895195  .00002863  00000-0  19795-3 0  9991,2 52458  53.2177 264.0413 0001277 150.5745 209.5319 15.08827093120819,6917.92,95.438,540.668,538.901,0.0
52458.0,STARLINK-3898,PAYLOAD,2024-07-13 10:46:22,15.08846564,0.0001474,53.2165,261.6621,120.7854,239.3283,-2.6654e-05,-7.12e-06,0.0,0 STARLINK-3898,1 52458U 22049H   24195.44886661 -.00000712  00000-0 -26654-4 0  9994,2 52458  53.2165 261.6621 0001474 120.7854 239.3283 15.08846564121051,6917.86,95.437,540.745,538.706,0.0
52458.0,STARLINK-3898,PAYLOAD,2024-07-13 21:54:04,15.08843611,0.0001371,53.2155,259.5838,94.8402,265.2747,9.1076e-05,1.162e-05,0.0,0 STARLINK-3898,1 52458U 22049H   24195.91254730  .00001162  00000-0  91076-4 0  9990,2 52458  53.2155 259.5838 0001371  94.8402 265.2747 15.08843611120964,6917.869,95.437,540.683,538.786,0.0
52458.0,STARLINK-3898,PAYLOAD,2024-07-14 10:37:08,15.08847422,0.0001592,53.2162,257.2026,112.0163,248.0998,5.8999e-05,6.51e-06,0.0,0 STARLINK-3898,1 52458U 22049H   24196.44246463  .00000651  00000-0  58999-4 0  9992,2 52458  53.2162 257.2026 0001592 112.0163 248.0998 15.08847422121049,6917.858,95.437,540.824,538.621,0.0
52458.0,STARLINK-3898,PAYLOAD,2024-07-15 04:06:24,15.08832117,0.0001437,53.216,253.9326,99.0295,261.086,0.00014088,1.954e-05,0.0,0 STARLINK-3898,1 52458U 22049H   24197.17111278  .00001954  00000-0  14088-3 0  9995,2 52458  53.2160 253.9326 0001437  99.0295 261.0860 15.08832117121319,6917.904,95.438,540.764,538.775,0.0
52458.0,STARLINK-3898,PAYLOAD,2024-07-15 10:27:56,15.08834892,0.0001461,53.2158,252.7437,96.6202,263.4957,0.00012437,1.692e-05,0.0,0 STARLINK-3898,1 52458U 22049H   24197.43607197  .00001692  00000-0  12437-3 0  9999,2 52458  53.2158 252.7437 0001461  96.6202 263.4957 15.08834892121195,6917.896,95.438,540.772,538.75,0.0
52458.0,STARLINK-3898,PAYLOAD,2024-07-16 10:18:43,15.08839939,0.0001495,53.2158,248.2837,98.0865,262.0297,2.5799e-05,1.23e-06,0.0,0 STARLINK-3898,1 52458U 22049H   24198.42967108  .00000123  00000-0  25799-4 0  9994,2 52458  53.2158 248.2837 0001495  98.0865 262.0297 15.08839939121501,6917.881,95.438,540.78,538.711,0.0
52458.0,STARLINK-3898,PAYLOAD,2024-07-17 02:12:35,15.08831486,0.0001555,53.2159,245.3125,98.4891,261.6278,2.8223e-05,1.61e-06,0.0,0 STARLINK-3898,1 52458U 22049H   24199.09207833  .00000161  00000-0  28223-4 0  9997,2 52458  53.2159 245.3125 0001555  98.4891 261.6278 15.08831486121604,6917.906,95.438,540.847,538.696,0.0
52458.0,STARLINK-3898,PAYLOAD,2024-07-17 10:09:31,15.08836022,0.000137,53.2149,243.8236,94.7641,265.3508,4.8381e-05,4.82e-06,0.0,0 STARLINK-3898,1 52458U 22049H   24199.42327654  .00000482  00000-0  48381-4 0  9991,2 52458  53.2149 243.8236 0001370  94.7641 265.3508 15.08836022121491,6917.893,95.438,540.705,538.81,0.0
